NORAD_CAT_ID,OBJECT_NAME,OBJECT_TYPE,EPOCH,MEAN_MOTION,ECCENTRICITY,INCLINATION,RA_OF_ASC_NODE,ARG_OF_PERICENTER,MEAN_ANOMALY,BSTAR,MEAN_MOTION_DOT,MEAN_MOTION_DDOT,TLE_LINE0,TLE_LINE1,TLE_LINE2,SEMIMAJOR_AXIS,PERIOD,APOGEE,PERIGEE,DECAYED
49750.0,STARLINK-3236,PAYLOAD,2024-03-06 15:34:08,15.08858413,0.0001559,53.2155,199.8777,130.1387,229.9741,0.00023885,3.517e-05,0.0,0 STARLINK-3236,1 49750U 21115AC  24066.64870818  .00003517  00000-0  23885-3 0  9990,2 49750  53.2155 199.8777 0001559 130.1387 229.9741 15.08858413125981,6917.824,95.436,540.768,538.611,0.0
49750.0,STARLINK-3236,PAYLOAD,2024-03-07 13:49:35,15.08813638,0.0001512,53.2175,195.7163,106.309,253.8069,-0.00017874,-3.129e-05,0.0,0 STARLINK-3236,1 49750U 21115AC  24067.57610822 -.00003129  00000-0 -17874-3 0  9992,2 49750  53.2175 195.7163 0001512 106.3090 253.8069 15.08813638125015,6917.961,95.439,540.872,538.78,0.0
49750.0,STARLINK-3236,PAYLOAD,2024-03-08 12:04:58,15.08823575,0.0001276,53.2177,191.5525,106.5433,253.5699,-9.3355e-05,-1.773e-05,0.0,0 STARLINK-3236,1 49750U 21115AC  24068.50345609 -.00001773  00000-0 -93355-4 0  9996,2 49750  53.2177 191.5525 0001276 106.5433 253.5699 15.08823575126268,6917.931,95.439,540.678,538.913,0.0
49750.0,STARLINK-3236,PAYLOAD,2024-03-08 15:15:44,15.08834134,0.0001561,53.2159,190.9604,127.8692,232.2442,1.1236e-05,-1.09e-06,0.0,0 STARLINK-3236,1 49750U 21115AC  24068.63593204 -.00000109  00000-0  11236-4 0  9995,2 49750  53.2159 190.9604 0001561 127.8692 232.2442 15.08834134126284,6917.898,95.438,540.843,538.683,0.0
49750.0,STARLINK-3236,PAYLOAD,2024-03-09 00:48:02,15.08849681,9.03e-05,53.2165,189.1741,81.1159,278.9936,0.00018128,2.599e-05,0.0,0 STARLINK-3236,1 49750U 21115AC  24069.03336551  .00002599  00000-0  18128-3 0  9990,2 49750  53.2165 189.1741 0000903  81.1159 278.9936 15.08849681126347,6917.851,95.437,540.34,539.091,0.0
49750.0,STARLINK-3236,PAYLOAD,2024-03-09 11:55:46,15.08824753,0.0001634,53.2157,187.0925,90.7186,269.3994,0.00035979,5.44e-05,0.0,0 STARLINK-3236,1 49750U 21115AC  24069.49706580  .00005440  00000-0  35979-3 0  9994,2 49750  53.2157 187.0925 0001634  90.7186 269.3994 15.08824753126416,6917.927,95.439,540.922,538.662,0.0
49750.0,STARLINK-3236,PAYLOAD,2024-03-09 16:41:55,15.08827565,0.0001675,53.2159,186.1995,85.9073,274.211,0.00034334,5.179e-05,0.0,0 STARLINK-3236,1 49750U 21115AC  24069.69578573  .00005179  00000-0  34334-3 0  9998,2 49750  53.2159 186.1995 0001675  85.9073 274.2110 15.08827565125330,6917.918,95.438,540.942,538.625,0.0
49750.0,STARLINK-3236,PAYLOAD,2024-03-10 00:38:50,15.08849006,6.56e-05,53.2177,184.7132,92.31,267.7967,0.00043326,6.616e-05,0.0,0 STARLINK-3236,1 49750U 21115AC  24070.02697155  .00006616  00000-0  43326-3 0  9993,2 49750  53.2177 184.7132 0000656  92.3100 267.7967 15.08849006126497,6917.853,95.437,540.172,539.264,0.0
49750.0,STARLINK-3236,PAYLOAD,2024-03-10 11:46:33,15.08831555,0.0001361,53.2157,182.6311,86.4371,273.6777,-6.1418e-05,-1.265e-05,0.0,0 STARLINK-3236,1 49750U 21115AC  24070.49066528 -.00001265  00000-0 -61418-4 0  9998,2 49750  53.2157 182.6311 0001361  86.4371 273.6777 15.08831555126562,6917.906,95.438,540.713,538.83,0.0
49750.0,STARLINK-3236,PAYLOAD,2024-03-10 16:32:42,15.08835442,0.0001725,53.2171,181.7385,83.4545,276.6643,-2.9781e-05,-7.62e-06,0.0,0 STARLINK-3236,1 49750U 21115AC  24070.68938521 -.00000762  00000-0 -29781-4 0  9998,2 49750  53.2171 181.7385 0001725  83.4545 276.6643 15.08835442125487,6917.894,95.438,540.953,538.566,0.0
49750.0,STARLINK-3236,PAYLOAD,2024-03-11 00:29:38,15.08845796,0.0001479,53.218,180.2539,85.125,274.9911,7.9677e-05,9.81e-06,0.0,0 STARLINK-3236,1 49750U 21115AC  24071.02057988  .00000981  00000-0  79677-4 0  9996,2 49750  53.2180 180.2539 0001479  85.1250 274.9911 15.08845796126641,6917.863,95.437,540.751,538.705,0.0
49750.0,STARLINK-3236,PAYLOAD,2024-03-11 13:12:43,15.08835793,0.0001335,53.2137,177.8733,93.3575,266.757,6.4037e-05,7.31e-06,0.0,0 STARLINK-3236,1 49750U 21115AC  24071.55050444  .00000731  00000-0  64037-4 0  9991,2 49750  53.2137 177.8733 0001335  93.3575 266.7570 15.08835793126728,6917.893,95.438,540.682,538.835,0.0
49750.0,STARLINK-3236,PAYLOAD,2024-03-11 16:23:29,15.08851546,0.0001148,53.2183,177.2769,104.401,255.711,0.00015835,2.234e-05,0.0,0 STARLINK-3236,1 49750U 21115AC  24071.68297539  .00002234  00000-0  15835-3 0  9994,2 49750  53.2183 177.2769 0001148 104.4010 255.7110 15.08851546126746,6917.845,95.437,540.504,538.916,0.0
49750.0,STARLINK-3236,PAYLOAD,2024-03-12 13:03:30,15.08842401,0.0001796,53.2171,173.4121,106.1089,254.0101,0.0002327,3.418e-05,0.0,0 STARLINK-3236,1 49750U 21115AC  24072.54410326  .00003418  00000-0  23270-3 0  9998,2 49750  53.2171 173.4121 0001796 106.1089 254.0101 15.08842401126873,6917.873,95.437,540.981,538.496,0.0
49750.0,STARLINK-3236,PAYLOAD,2024-03-12 16:14:16,15.08841948,0.0001691,53.2168,172.8182,104.2082,255.9098,0.00011358,1.52e-05,0.0,0 STARLINK-3236,1 49750U 21115AC  24072.67658335  .00001520  00000-0  11358-3 0  9992,2 49750  53.2168 172.8182 0001691 104.2082 255.9098 15.08841948125784,6917.874,95.437,540.909,538.57,0.0
49750.0,STARLINK-3236,PAYLOAD,2024-03-13 12:54:17,15.08844358,0.0001372,53.2176,168.9525,97.3191,262.7957,0.00020163,2.923e-05,0.0,0 STARLINK-3236,1 49750U 21115AC  24073.53770081  .00002923  00000-0  20163-3 0  9993,2 49750  53.2176 168.9525 0001372  97.3191 262.7957 15.08844358125912,6917.867,95.437,540.681,538.783,0.0
49750.0,STARLINK-3236,PAYLOAD,2024-03-14 06:23:31,15.08846205,0.0001699,53.2178,165.6818,99.6318,260.4867,0.00012352,1.679e-05,0.0,0 STARLINK-3236,1 49750U 21115AC  24074.26633853  .00001679  00000-0  12352-3 0  9997,2 49750  53.2178 165.6818 0001699  99.6318 260.4867 15.08846205126022,6917.861,95.437,540.902,538.551,0.0
49750.0,STARLINK-3236,PAYLOAD,2024-03-14 11:09:41,15.08837212,0.000167,53.2176,164.7885,104.3406,255.7772,4.9766e-05,5.04e-06,0.0,0 STARLINK-3236,1 49750U 21115AC  24074.46506221  .00000504  00000-0  49766-4 0  9993,2 49750  53.2176 164.7885 0001670 104.3406 255.7772 15.08837212127161,6917.889,95.438,540.909,538.599,0.0
49750.0,STARLINK-3236,PAYLOAD,2024-03-15 11:00:28,15.08836554,0.0001543,53.2173,160.3265,98.6506,261.4661,4.3697e-05,4.07e-06,0.0,0 STARLINK-3236,1 49750U 21115AC  24075.45866388  .00000407  00000-0  43697-4 0  9995,2 49750  53.2173 160.3265 0001543  98.6506 261.4661 15.08836554126200,6917.891,95.438,540.823,538.688,0.0
49750.0,STARLINK-3236,PAYLOAD,2024-03-16 04:29:43,15.08832551,0.0001548,53.2172,157.0589,109.7726,250.3433,8.9673e-05,1.139e-05,0.0,0 STARLINK-3236,1 49750U 21115AC  24076.18730571  .00001139  00000-0  89673-4 0  9997,2 49750  53.2172 157.0589 0001548 109.7726 250.3433 15.08832551127426,6917.903,95.438,540.839,538.697,0.0
49750.0,STARLINK-3236,PAYLOAD,2024-03-16 10:51:16,15.08830899,0.0001462,53.2169,155.8672,105.1185,254.9969,5.5495e-05,5.95e-06,0.0,0 STARLINK-3236,1 49750U 21115AC  24076.45226940  .00000595  00000-0  55495-4 0  9997,2 49750  53.2169 155.8672 0001462 105.1185 254.9969 15.08830899126353,6917.908,95.438,540.785,538.762,0.0
49750.0,STARLINK-3236,PAYLOAD,2024-03-17 12:17:26,15.08838291,0.0001329,53.2166,151.1112,86.0822,274.0322,9.9361e-05,1.294e-05,0.0,0 STARLINK-3236,1 49750U 21115AC  24077.51210882  .00001294  00000-0  99361-4 0  9990,2 49750  53.2166 151.1112 0001329  86.0822 274.0322 15.08838291127626,6917.886,95.438,540.67,538.831,0.0
49750.0,STARLINK-3236,PAYLOAD,2024-03-18 12:08:13,15.08839509,0.0001357,53.2165,146.6514,82.9351,277.1796,0.00015177,2.128e-05,0.0,0 STARLINK-3236,1 49750U 21115AC  24078.50570949  .00002128  00000-0  15177-3 0  9992,2 49750  53.2165 146.6514 0001357  82.9351 277.1796 15.08839509126668,6917.882,95.438,540.686,538.808,0.0
49750.0,STARLINK-3236,PAYLOAD,2024-03-19 04:02:04,15.08845477,0.0001458,53.2164,143.6787,77.5217,282.5938,0.0001082,1.435e-05,0.0,0 STARLINK-3236,1 49750U 21115AC  24079.16810804  .00001435  00000-0  10820-3 0  9992,2 49750  53.2164 143.6787 0001458  77.5217 282.5938 15.08845477127872,6917.864,95.437,540.737,538.72,0.0
49750.0,STARLINK-3236,PAYLOAD,2024-03-19 10:23:36,15.08849023,0.0001604,53.216,142.4897,71.5446,288.5721,0.00014359,1.998e-05,0.0,0 STARLINK-3236,1 49750U 21115AC  24079.43306478  .00001998  00000-0  14359-3 0  9994,2 49750  53.2160 142.4897 0001604  71.5446 288.5721 15.08849023126807,6917.853,95.437,540.827,538.608,0.0
49750.0,STARLINK-3236,PAYLOAD,2024-03-20 10:14:24,15.0883756,0.0001597,53.2161,138.0255,113.6196,246.4964,-4.0599e-05,-9.34e-06,0.0,0 STARLINK-3236,1 49750U 21115AC  24080.42667172 -.00000934  00000-0 -40599-4 0  9993,2 49750  53.2161 138.0255 0001597 113.6196 246.4964 15.08837560128063,6917.888,95.438,540.858,538.648,0.0
49750.0,STARLINK-3236,PAYLOAD,2024-03-21 13:15:56,15.08849758,0.0001653,53.2158,132.9708,95.7058,264.4123,7.3508e-05,8.82e-06,0.0,0 STARLINK-3236,1 49750U 21115AC  24081.55274244  .00000882  00000-0  73508-4 0  9998,2 49750  53.2158 132.9708 0001653  95.7058 264.4123 15.08849758128233,6917.851,95.437,540.859,538.572,0.0
49750.0,STARLINK-3236,PAYLOAD,2024-03-22 09:55:57,15.08840359,0.0001588,53.2163,129.1043,95.041,265.0763,0.00014958,2.093e-05,0.0,0 STARLINK-3236,1 49750U 21115AC  24082.41386532  .00002093  00000-0  14958-3 0  9997,2 49750  53.2163 129.1043 0001588  95.0410 265.0763 15.08840359128360,6917.879,95.438,540.843,538.646,0.0
49750.0,STARLINK-3236,PAYLOAD,2024-03-22 13:06:44,15.08841498,0.0001576,53.2161,128.5093,94.9755,265.1417,0.00015296,2.147e-05,0.0,0 STARLINK-3236,1 49750U 21115AC  24082.54634451  .00002147  00000-0  15296-3 0  9993,2 49750  53.2161 128.5093 0001576  94.9755 265.1417 15.08841498127274,6917.876,95.437,540.831,538.651,0.0
49750.0,STARLINK-3236,PAYLOAD,2024-03-23 03:25:13,15.08838962,0.0001572,53.2161,125.8315,94.977,265.1401,-2.3812e-05,-6.67e-06,0.0,0 STARLINK-3236,1 49750U 21115AC  24083.14251272 -.00000667  00000-0 -23812-4 0  9997,2 49750  53.2161 125.8315 0001572  94.9770 265.1401 15.08838962128472,6917.884,95.438,540.836,538.661,0.0
